STARLINK-5184           
1 54087U 22136AN  26011.08991876  .00000659  00000+0  59485-4 0  9990
2 54087  53.2156 232.3375 0001403  89.7504 270.3649 15.08841667178298
STARLINK-5153           
1 54088U 22136AP  26011.33284520  .00001284  00000+0  98750-4 0  9993
2 54088  53.2168 231.7126 0001529  81.6949 278.4217 15.08853151178327
STARLINK-5143           
1 54089U 22136AQ  26011.66667824 -.00002192  00000+0 -12188-3 0  9993
2 54089  53.2165 229.9399 0001754 102.7383  50.1562 15.08206857  5752
STARLINK-5177           
1 54090U 22136AR  26011.31443827  .00000050  00000+0  21218-4 0  9996
2 54090  53.2164 231.5967 0001458  91.7009 268.4150 15.08836959178329
STARLINK-5221           
1 54091U 22136AS  26011.61615501  .00000503  00000+0  49672-4 0  9997
2 54091  53.2162 229.9326 0001468  86.2785 273.8375 15.08838667178371
STARLINK-5190           
1 54092U 22136AT  26011.64982412  .00042610  00000+0  50808-3 0  9996
2 54092  53.1808  92.8406 0002048  64.8836 295.2390 15.60666450180306
STARLINK-5213           
1 54093U 22136AU  26011.63089556  .00000077  00000+0  22906-4 0  9993
2 54093  53.2155 230.0188 0001363  89.7282 270.3867 15.08837679178378
STARLINK-5219           
1 54094U 22136AV  26011.61901161  .01867154  11864-4  77915-3 0  9999
2 54094  53.2080 209.8986 0004240 263.6949  96.3610 16.22369783178652
STARLINK-5193           
1 54095U 22136AW  26011.62353604 -.00000857  00000+0 -35754-4 0  9995
2 54095  53.2152 229.9737 0001548  89.4529 270.6640 15.08831772178370
STARLINK-5188           
1 54096U 22136AX  26011.30337943  .00000647  00000+0  58752-4 0  9997
2 54096  53.2163 231.5290 0001400  87.8009 272.3143 15.08838950178325
STARLINK-5197           
1 54097U 22136AY  26011.24499899 -.00001424  00000+0 -71423-4 0  9996
2 54097  53.2164 206.9307 0001788  88.1649 271.9548 15.08817649178668
STARLINK-5217           
1 54098U 22136AZ  26011.02472327  .00000011  00000+0  18757-4 0  9990
2 54098  53.2169 233.3253 0001550  94.6835 265.4334 15.08841916178276
STARLINK-5198           
1 54099U 22136BA  26010.35390964  .00000666  00000+0  59906-4 0  9999
2 54099  53.2168 235.5558 0001409  96.1893 263.9259 15.08842497178186
STARLINK-5185           
1 54100U 22136BB  26011.62721353 -.00000120  00000+0  10586-4 0  9990
2 54100  53.2158 229.9950 0001659  86.1269 273.9913 15.08843441178373
STARLINK-5204           
1 54101U 22136BC  26011.29651922  .00001634  00000+0  12070-3 0  9997
2 54101  53.2164 216.5284 0001532  85.2333 274.8834 15.08846541178539
STARLINK-5179           
1 54102U 22136BD  26011.32548950  .00000670  00000+0  60176-4 0  9998
2 54102  53.2164 231.6551 0001491  93.5920 266.5243 15.08837736178328
