[{"OBJECT_NAME":"STARLINK-5184","OBJECT_ID":"2022-136AN","EPOCH":"2026-01-11T02:09:28.980864","MEAN_MOTION":15.08841667,"ECCENTRICITY":0.00014034,"INCLINATION":53.2156,"RA_OF_ASC_NODE":232.3375,"ARG_OF_PERICENTER":89.7504,"MEAN_ANOMALY":270.3649,"EPHEMERIS_TYPE":0,"CLASSIFICATION_TYPE":"U","NORAD_CAT_ID":54087,"ELEMENT_SET_NO":999,"REV_AT_EPOCH":17829,"BSTAR":5.9484663e-5,"MEAN_MOTION_DOT":6.59e-6,"MEAN_MOTION_DDOT":0},{"OBJECT_NAME":"STARLINK-5153","OBJECT_ID":"2022-136AP","EPOCH":"2026-01-11T07:59:17.825280","MEAN_MOTION":15.08853151,"ECCENTRICITY":0.00015298,"INCLINATION":53.2168,"RA_OF_ASC_NODE":231.7126,"ARG_OF_PERICENTER":81.6949,"MEAN_ANOMALY":278.4217,"EPHEMERIS_TYPE":0,"CLASSIFICATION_TYPE":"U","NORAD_CAT_ID":54088,"ELEMENT_SET_NO":999,"REV_AT_EPOCH":17832,"BSTAR":9.8749938e-5,"MEAN_MOTION_DOT":1.284e-5,"MEAN_MOTION_DDOT":0},{"OBJECT_NAME":"STARLINK-5143","OBJECT_ID":"2022-136AQ","EPOCH":"2026-01-11T16:00:00.999936","MEAN_MOTION":15.08206857,"ECCENTRICITY":0.00017549,"INCLINATION":53.2165,"RA_OF_ASC_NODE":229.9399,"ARG_OF_PERICENTER":102.7383,"MEAN_ANOMALY":50.1562,"EPHEMERIS_TYPE":0,"CLASSIFICATION_TYPE":"U","NORAD_CAT_ID":54089,"ELEMENT_SET_NO":999,"REV_AT_EPOCH":575,"BSTAR":-0.00012187942,"MEAN_MOTION_DOT":-2.192e-5,"MEAN_MOTION_DDOT":0},{"OBJECT_NAME":"STARLINK-5177","OBJECT_ID":"2022-136AR","EPOCH":"2026-01-11T07:32:47.466528","MEAN_MOTION":15.08836959,"ECCENTRICITY":0.00014583,"INCLINATION":53.2164,"RA_OF_ASC_NODE":231.5967,"ARG_OF_PERICENTER":91.7009,"MEAN_ANOMALY":268.415,"EPHEMERIS_TYPE":0,"CLASSIFICATION_TYPE":"U","NORAD_CAT_ID":54090,"ELEMENT_SET_NO":999,"REV_AT_EPOCH":17832,"BSTAR":2.121844e-5,"MEAN_MOTION_DOT":5.0e-7,"MEAN_MOTION_DDOT":0},{"OBJECT_NAME":"STARLINK-5221","OBJECT_ID":"2022-136AS","EPOCH":"2026-01-11T14:47:15.792864","MEAN_MOTION":15.08838667,"ECCENTRICITY":0.00014689,"INCLINATION":53.2162,"RA_OF_ASC_NODE":229.9326,"ARG_OF_PERICENTER":86.2785,"MEAN_ANOMALY":273.8375,"EPHEMERIS_TYPE":0,"CLASSIFICATION_TYPE":"U","NORAD_CAT_ID":54091,"ELEMENT_SET_NO":999,"REV_AT_EPOCH":17837,"BSTAR":4.9671788e-5,"MEAN_MOTION_DOT":5.03e-6,"MEAN_MOTION_DDOT":0},{"OBJECT_NAME":"STARLINK-5190","OBJECT_ID":"2022-136AT","EPOCH":"2026-01-11T15:35:44.803968","MEAN_MOTION":15.6066645,"ECCENTRICITY":0.00020488,"INCLINATION":53.1808,"RA_OF_ASC_NODE":92.8406,"ARG_OF_PERICENTER":64.8836,"MEAN_ANOMALY":295.239,"EPHEMERIS_TYPE":0,"CLASSIFICATION_TYPE":"U","NORAD_CAT_ID":54092,"ELEMENT_SET_NO":999,"REV_AT_EPOCH":18030,"BSTAR":0.00050808267,"MEAN_MOTION_DOT":0.0004261,"MEAN_MOTION_DDOT":0},{"OBJECT_NAME":"STARLINK-5213","OBJECT_ID":"2022-136AU","EPOCH":"2026-01-11T15:08:29.376384","MEAN_MOTION":15.08837679,"ECCENTRICITY":0.00013637,"INCLINATION":53.2155,"RA_OF_ASC_NODE":230.0188,"ARG_OF_PERICENTER":89.7282,"MEAN_ANOMALY":270.3867,"EPHEMERIS_TYPE":0,"CLASSIFICATION_TYPE":"U","NORAD_CAT_ID":54093,"ELEMENT_SET_NO":999,"REV_AT_EPOCH":17837,"BSTAR":2.2905918e-5,"MEAN_MOTION_DOT":7.7e-7,"MEAN_MOTION_DDOT":0},{"OBJECT_NAME":"STARLINK-5219","OBJECT_ID":"2022-136AV","EPOCH":"2026-01-11T14:51:22.603104","MEAN_MOTION":16.22369783,"ECCENTRICITY":0.00042405,"INCLINATION":53.208,"RA_OF_ASC_NODE":209.8986,"ARG_OF_PERICENTER":263.6949,"MEAN_ANOMALY":96.361,"EPHEMERIS_TYPE":0,"CLASSIFICATION_TYPE":"U","NORAD_CAT_ID":54094,"ELEMENT_SET_NO":999,"REV_AT_EPOCH":17865,"BSTAR":0.00077914958,"MEAN_MOTION_DOT":0.01867154,"MEAN_MOTION_DDOT":1.186359e-5},{"OBJECT_NAME":"STARLINK-5193","OBJECT_ID":"2022-136AW","EPOCH":"2026-01-11T14:57:53.513856","MEAN_MOTION":15.08831772,"ECCENTRICITY":0.00015487,"INCLINATION":53.2152,"RA_OF_ASC_NODE":229.9737,"ARG_OF_PERICENTER":89.4529,"MEAN_ANOMALY":270.664,"EPHEMERIS_TYPE":0,"CLASSIFICATION_TYPE":"U","NORAD_CAT_ID":54095,"ELEMENT_SET_NO":999,"REV_AT_EPOCH":17837,"BSTAR":-3.5753917e-5,"MEAN_MOTION_DOT":-8.57e-6,"MEAN_MOTION_DDOT":0},{"OBJECT_NAME":"STARLINK-5188","OBJECT_ID":"2022-136AX","EPOCH":"2026-01-11T07:16:51.982752","MEAN_MOTION":15.0883895,"ECCENTRICITY":0.00014008,"INCLINATION":53.2163,"RA_OF_ASC_NODE":231.529,"ARG_OF_PERICENTER":87.8009,"MEAN_ANOMALY":272.3143,"EPHEMERIS_TYPE":0,"CLASSIFICATION_TYPE":"U","NORAD_CAT_ID":54096,"ELEMENT_SET_NO":999,"REV_AT_EPOCH":17832,"BSTAR":5.8751792e-5,"MEAN_MOTION_DOT":6.47e-6,"MEAN_MOTION_DDOT":0},{"OBJECT_NAME":"STARLINK-5197","OBJECT_ID":"2022-136AY","EPOCH":"2026-01-11T05:52:47.912736","MEAN_MOTION":15.08817649,"ECCENTRICITY":0.00017884,"INCLINATION":53.2164,"RA_OF_ASC_NODE":206.9307,"ARG_OF_PERICENTER":88.1649,"MEAN_ANOMALY":271.9548,"EPHEMERIS_TYPE":0,"CLASSIFICATION_TYPE":"U","NORAD_CAT_ID":54097,"ELEMENT_SET_NO":999,"REV_AT_EPOCH":17866,"BSTAR":-7.142316e-5,"MEAN_MOTION_DOT":-1.424e-5,"MEAN_MOTION_DDOT":0},{"OBJECT_NAME":"STARLINK-5217","OBJECT_ID":"2022-136AZ","EPOCH":"2026-01-11T00:35:36.090528","MEAN_MOTION":15.08841916,"ECCENTRICITY":0.00015506,"INCLINATION":53.2169,"RA_OF_ASC_NODE":233.3253,"ARG_OF_PERICENTER":94.6835,"MEAN_ANOMALY":265.4334,"EPHEMERIS_TYPE":0,"CLASSIFICATION_TYPE":"U","NORAD_CAT_ID":54098,"ELEMENT_SET_NO":999,"REV_AT_EPOCH":17827,"BSTAR":1.8756999e-5,"MEAN_MOTION_DOT":1.1e-7,"MEAN_MOTION_DDOT":0},{"OBJECT_NAME":"STARLINK-5198","OBJECT_ID":"2022-136BA","EPOCH":"2026-01-10T08:29:37.792896","MEAN_MOTION":15.08842497,"ECCENTRICITY":0.00014094,"INCLINATION":53.2168,"RA_OF_ASC_NODE":235.5558,"ARG_OF_PERICENTER":96.1893,"MEAN_ANOMALY":263.9259,"EPHEMERIS_TYPE":0,"CLASSIFICATION_TYPE":"U","NORAD_CAT_ID":54099,"ELEMENT_SET_NO":999,"REV_AT_EPOCH":17818,"BSTAR":5.9905918e-5,"MEAN_MOTION_DOT":6.66e-6,"MEAN_MOTION_DDOT":0},{"OBJECT_NAME":"STARLINK-5185","OBJECT_ID":"2022-136BB","EPOCH":"2026-01-11T15:03:11.248992","MEAN_MOTION":15.08843441,"ECCENTRICITY":0.00016599,"INCLINATION":53.2158,"RA_OF_ASC_NODE":229.995,"ARG_OF_PERICENTER":86.1269,"MEAN_ANOMALY":273.9913,"EPHEMERIS_TYPE":0,"CLASSIFICATION_TYPE":"U","NORAD_CAT_ID":54100,"ELEMENT_SET_NO":999,"REV_AT_EPOCH":17837,"BSTAR":1.0586011e-5,"MEAN_MOTION_DOT":-1.2e-6,"MEAN_MOTION_DDOT":0},{"OBJECT_NAME":"STARLINK-5204","OBJECT_ID":"2022-136BC","EPOCH":"2026-01-11T07:06:59.260608","MEAN_MOTION":15.08846541,"ECCENTRICITY":0.00015328,"INCLINATION":53.2164,"RA_OF_ASC_NODE":216.5284,"ARG_OF_PERICENTER":85.2333,"MEAN_ANOMALY":274.8834,"EPHEMERIS_TYPE":0,"CLASSIFICATION_TYPE":"U","NORAD_CAT_ID":54101,"ELEMENT_SET_NO":999,"REV_AT_EPOCH":17853,"BSTAR":0.00012069831,"MEAN_MOTION_DOT":1.634e-5,"MEAN_MOTION_DDOT":0},{"OBJECT_NAME":"STARLINK-5179","OBJECT_ID":"2022-136BD","EPOCH":"2026-01-11T07:48:42.292800","MEAN_MOTION":15.08837736,"ECCENTRICITY":0.00014911,"INCLINATION":53.2164,"RA_OF_ASC_NODE":231.6551,"ARG_OF_PERICENTER":93.592,"MEAN_ANOMALY":266.5243,"EPHEMERIS_TYPE":0,"CLASSIFICATION_TYPE":"U","NORAD_CAT_ID":54102,"ELEMENT_SET_NO":999,"REV_AT_EPOCH":17832,"BSTAR":6.0176133e-5,"MEAN_MOTION_DOT":6.7e-6,"MEAN_MOTION_DDOT":0}]
